[{"OBJECT_NAME":"KKS-1 (KISEKI)","OBJECT_ID":"2009-002H","EPOCH":"2026-03-09T22:29:35.909952","MEAN_MOTION":14.82831361,"ECCENTRICITY":0.00064814,"INCLINATION":98.118,"RA_OF_ASC_NODE":349.8365,"ARG_OF_PERICENTER":249.6334,"MEAN_ANOMALY":110.4183,"EPHEMERIS_TYPE":0,"CLASSIFICATION_TYPE":"U","NORAD_CAT_ID":33499,"ELEMENT_SET_NO":999,"REV_AT_EPOCH":92148,"BSTAR":0.00028879278,"MEAN_MOTION_DOT":2.283e-5,"MEAN_MOTION_DDOT":0},{"OBJECT_NAME":"TITAN 3C TRANSTAGE DEB","OBJECT_ID":"1965-082KX","EPOCH":"2026-03-09T11:54:53.227296","MEAN_MOTION":14.73912767,"ECCENTRICITY":0.00329824,"INCLINATION":32.0547,"RA_OF_ASC_NODE":224.9569,"ARG_OF_PERICENTER":79.7996,"MEAN_ANOMALY":324.1117,"EPHEMERIS_TYPE":0,"CLASSIFICATION_TYPE":"U","NORAD_CAT_ID":2799,"ELEMENT_SET_NO":999,"REV_AT_EPOCH":14143,"BSTAR":0.00030302959,"MEAN_MOTION_DOT":2.085e-5,"MEAN_MOTION_DDOT":0}]
